{
  "type": "FeatureCollection",
  "features": [
    {
      "type": "Feature",
      "properties": {
        "norad_id": 66870,
        "name": "STARLINK-36114",
        "group": "last-30-days",
        "lat": 7.235007793480978,
        "lon": -140.91708461807772,
        "alt_km": 402.7323467705146,
        "timestamp": "2025-12-25T03:55:54.954559+00:00",
        "meta_object_name": "STARLINK-36114",
        "meta_object_id": "2025-281Y",
        "meta_epoch": "2025-12-24T20:00:01.000224",
        "meta_mean_motion": 15.56035995,
        "meta_eccentricity": 0.0001501,
        "meta_inclination": 43.0003,
        "meta_ra_of_asc_node": 48.8601,
        "meta_arg_of_pericenter": 283.1819,
        "meta_mean_anomaly": 193.4858,
        "meta_ephemeris_type": 0,
        "meta_classification_type": "U",
        "meta_norad_cat_id": 66870,
        "meta_element_set_no": 999,
        "meta_rev_at_epoch": 323,
        "meta_bstar": -0.032502,
        "meta_mean_motion_dot": -0.02072198,
        "meta_mean_motion_ddot": 0,
        "tle_line1": "1 66870U 25281Y   25358.83334491 -.02072198  00000+0 -32502-1 0  9996",
        "tle_line2": "2 66870  43.0003  48.8601 0001501 283.1819 193.4858 15.56035995  3239"
      },
      "geometry": {
        "type": "Point",
        "coordinates": [
          -140.91708461807772,
          7.235007793480978
        ]
      }
    },
    {
      "type": "Feature",
      "properties": {
        "norad_id": 66871,
        "name": "STARLINK-36095",
        "group": "last-30-days",
        "lat": 5.9363375403163,
        "lon": -139.49895682524178,
        "alt_km": 402.829569955853,
        "timestamp": "2025-12-25T03:55:54.954570+00:00",
        "meta_object_name": "STARLINK-36095",
        "meta_object_id": "2025-281Z",
        "meta_epoch": "2025-12-24T20:00:01.000224",
        "meta_mean_motion": 15.56040167,
        "meta_eccentricity": 0.000133,
        "meta_inclination": 43.0001,
        "meta_ra_of_asc_node": 48.855,
        "meta_arg_of_pericenter": 282.9826,
        "meta_mean_anomaly": 195.6005,
        "meta_ephemeris_type": 0,
        "meta_classification_type": "U",
        "meta_norad_cat_id": 66871,
        "meta_element_set_no": 999,
        "meta_rev_at_epoch": 336,
        "meta_bstar": -0.032602,
        "meta_mean_motion_dot": -0.02078055,
        "meta_mean_motion_ddot": 0,
        "tle_line1": "1 66871U 25281Z   25358.83334491 -.02078055  00000+0 -32602-1 0  9996",
        "tle_line2": "2 66871  43.0001  48.8550 0001330 282.9826 195.6005 15.56040167  3365"
      },
      "geometry": {
        "type": "Point",
        "coordinates": [
          -139.49895682524178,
          5.9363375403163
        ]
      }
    },
    {
      "type": "Feature",
      "properties": {
        "norad_id": 66872,
        "name": "STARLINK-36082",
        "group": "last-30-days",
        "lat": 4.63877236675704,
        "lon": -138.09248038226872,
        "alt_km": 403.111385369245,
        "timestamp": "2025-12-25T03:55:54.954580+00:00",
        "meta_object_name": "STARLINK-36082",
        "meta_object_id": "2025-281AA",
        "meta_epoch": "2025-12-24T20:00:01.000224",
        "meta_mean_motion": 15.56030942,
        "meta_eccentricity": 0.000161,
        "meta_inclination": 43.0001,
        "meta_ra_of_asc_node": 48.85,
        "meta_arg_of_pericenter": 285.9564,
        "meta_mean_anomaly": 194.5454,
        "meta_ephemeris_type": 0,
        "meta_classification_type": "U",
        "meta_norad_cat_id": 66872,
        "meta_element_set_no": 999,
        "meta_rev_at_epoch": 323,
        "meta_bstar": -0.032343,
        "meta_mean_motion_dot": -0.02062836,
        "meta_mean_motion_ddot": 0,
        "tle_line1": "1 66872U 25281AA  25358.83334491 -.02062836  00000+0 -32343-1 0  9999",
        "tle_line2": "2 66872  43.0001  48.8500 0001610 285.9564 194.5454 15.56030942  3236"
      },
      "geometry": {
        "type": "Point",
        "coordinates": [
          -138.09248038226872,
          4.63877236675704
        ]
      }
    },
    {
      "type": "Feature",
      "properties": {
        "norad_id": 66873,
        "name": "STARLINK-36128",
        "group": "last-30-days",
        "lat": 0.72221576199629,
        "lon": -133.88701924251,
        "alt_km": 403.4961949986691,
        "timestamp": "2025-12-25T03:55:54.954590+00:00",
        "meta_object_name": "STARLINK-36128",
        "meta_object_id": "2025-281AB",
        "meta_epoch": "2025-12-24T20:00:01.000224",
        "meta_mean_motion": 15.56033305,
        "meta_eccentricity": 0.0001484,
        "meta_inclination": 43.0001,
        "meta_ra_of_asc_node": 48.8353,
        "meta_arg_of_pericenter": 285.7739,
        "meta_mean_anomaly": 200.4793,
        "meta_ephemeris_type": 0,
        "meta_classification_type": "U",
        "meta_norad_cat_id": 66873,
        "meta_element_set_no": 999,
        "meta_rev_at_epoch": 336,
        "meta_bstar": -0.032429,
        "meta_mean_motion_dot": -0.02067813,
        "meta_mean_motion_ddot": 0,
        "tle_line1": "1 66873U 25281AB  25358.83334491 -.02067813  00000+0 -32429-1 0  9995",
        "tle_line2": "2 66873  43.0001  48.8353 0001484 285.7739 200.4793 15.56033305  3367"
      },
      "geometry": {
        "type": "Point",
        "coordinates": [
          -133.88701924251,
          0.72221576199629
        ]
      }
    },
    {
      "type": "Feature",
      "properties": {
        "norad_id": 66874,
        "name": "STARLINK-36129",
        "group": "last-30-days",
        "lat": 3.3332604823830394,
        "lon": -136.68566524034762,
        "alt_km": 403.22300231204554,
        "timestamp": "2025-12-25T03:55:54.954602+00:00",
        "meta_object_name": "STARLINK-36129",
        "meta_object_id": "2025-281AC",
        "meta_epoch": "2025-12-24T20:00:01.000224",
        "meta_mean_motion": 15.56033349,
        "meta_eccentricity": 0.0001508,
        "meta_inclination": 42.9999,
        "meta_ra_of_asc_node": 48.845,
        "meta_arg_of_pericenter": 285.4806,
        "meta_mean_anomaly": 196.9407,
        "meta_ephemeris_type": 0,
        "meta_classification_type": "U",
        "meta_norad_cat_id": 66874,
        "meta_element_set_no": 999,
        "meta_rev_at_epoch": 336,
        "meta_bstar": -0.032459,
        "meta_mean_motion_dot": -0.02069568,
        "meta_mean_motion_ddot": 0,
        "tle_line1": "1 66874U 25281AC  25358.83334491 -.02069568  00000+0 -32459-1 0  9998",
        "tle_line2": "2 66874  42.9999  48.8450 0001508 285.4806 196.9407 15.56033349  3368"
      },
      "geometry": {
        "type": "Point",
        "coordinates": [
          -136.68566524034762,
          3.3332604823830394
        ]
      }
    },
    {
      "type": "Feature",
      "properties": {
        "norad_id": 66875,
        "name": "STARLINK-36053",
        "group": "last-30-days",
        "lat": -0.5836213171096302,
        "lon": -132.49107708419407,
        "alt_km": 403.69166938710714,
        "timestamp": "2025-12-25T03:55:54.954612+00:00",
        "meta_object_name": "STARLINK-36053",
        "meta_object_id": "2025-281AD",
        "meta_epoch": "2025-12-24T20:00:01.000224",
        "meta_mean_motion": 15.56029212,
        "meta_eccentricity": 0.000154,
        "meta_inclination": 43.0003,
        "meta_ra_of_asc_node": 48.8298,
        "meta_arg_of_pericenter": 288.3938,
        "meta_mean_anomaly": 199.7759,
        "meta_ephemeris_type": 0,
        "meta_classification_type": "U",
        "meta_norad_cat_id": 66875,
        "meta_element_set_no": 999,
        "meta_rev_at_epoch": 336,
        "meta_bstar": -0.03228,
        "meta_mean_motion_dot": -0.0205911,
        "meta_mean_motion_ddot": 0,
        "tle_line1": "1 66875U 25281AD  25358.83334491 -.02059110  00000+0 -32280-1 0  9993",
        "tle_line2": "2 66875  43.0003  48.8298 0001540 288.3938 199.7759 15.56029212  3366"
      },
      "geometry": {
        "type": "Point",
        "coordinates": [
          -132.49107708419407,
          -0.5836213171096302
        ]
      }
    },
    {
      "type": "Feature",
      "properties": {
        "norad_id": 66876,
        "name": "STARLINK-35702",
        "group": "last-30-days",
        "lat": 2.0312167803655408,
        "lon": -135.28801891048823,
        "alt_km": 403.373557258592,
        "timestamp": "2025-12-25T03:55:54.954622+00:00",
        "meta_object_name": "STARLINK-35702",
        "meta_object_id": "2025-281AE",
        "meta_epoch": "2025-12-24T20:00:01.000224",
        "meta_mean_motion": 15.56029261,
        "meta_eccentricity": 0.0001605,
        "meta_inclination": 43.0002,
        "meta_ra_of_asc_node": 48.8404,
        "meta_arg_of_pericenter": 285.4771,
        "meta_mean_anomaly": 198.8572,
        "meta_ephemeris_type": 0,
        "meta_classification_type": "U",
        "meta_norad_cat_id": 66876,
        "meta_element_set_no": 999,
        "meta_rev_at_epoch": 336,
        "meta_bstar": -0.032272,
        "meta_mean_motion_dot": -0.02058699,
        "meta_mean_motion_ddot": 0,
        "tle_line1": "1 66876U 25281AE  25358.83334491 -.02058699  00000+0 -32272-1 0  9996",
        "tle_line2": "2 66876  43.0002  48.8404 0001605 285.4771 198.8572 15.56029261  3367"
      },
      "geometry": {
        "type": "Point",
        "coordinates": [
          -135.28801891048823,
          2.0312167803655408
        ]
      }
    }
  ]
}